start=new Date('2021-10-26T00:00:00.000Z').valueOf();
sats=[{"ARG_OF_PERICENTER":"87.9870","RCS_SIZE":"LARGE","MEAN_MOTION_DOT":"-0.00000858","MEAN_ELEMENT_THEORY":"SGP4","ELEMENT_SET_NO":"999","FILE":"3183720","SEMIMAJOR_AXIS":"6925.372","OBJECT_NAME":"STARLINK-2166","COUNTRY_CODE":"US","TLE_LINE2":"2 48558  53.0561  96.7602 0001646  87.9870 272.1308 15.06392358 25033","DECAY_DATE":null,"SITE":"AFETR","EPHEMERIS_TYPE":"0","APOAPSIS":"548.377","OBJECT_TYPE":"PAYLOAD","NORAD_CAT_ID":"48558","MEAN_ANOMALY":"272.1308","TLE_LINE1":"1 48558U 21041F   21298.59694117 -.00000858  00000-0 -38745-4 0  9996","INCLINATION":"53.0561","LAUNCH_DATE":"2021-05-15","TIME_SYSTEM":"UTC","MEAN_MOTION_DDOT":"0.0000000000000","CLASSIFICATION_TYPE":"U","PERIAPSIS":"546.097","REF_FRAME":"TEME","ECCENTRICITY":"0.00016460","MEAN_MOTION":"15.06392358","PERIOD":"95.593","BSTAR":"-0.00003874500000","GP_ID":"188150864","REV_AT_EPOCH":"2503","EPOCH":"2021-10-25T14:19:35.717088","CENTER_NAME":"EARTH","OBJECT_ID":"2021-041F","RA_OF_ASC_NODE":"96.7602"},{"OBJECT_ID":"2021-041G","RA_OF_ASC_NODE":"96.9005","CENTER_NAME":"EARTH","EPOCH":"2021-10-25T13:35:46.333536","REV_AT_EPOCH":"2507","GP_ID":"188150364","BSTAR":"-0.00000498570000","MEAN_MOTION":"15.06402239","PERIOD":"95.592","ECCENTRICITY":"0.00018460","REF_FRAME":"TEME","PERIAPSIS":"545.928","CLASSIFICATION_TYPE":"U","LAUNCH_DATE":"2021-05-15","TIME_SYSTEM":"UTC","MEAN_MOTION_DDOT":"0.0000000000000","INCLINATION":"53.0520","TLE_LINE1":"1 48559U 21041G   21298.56650849 -.00000356  00000-0 -49857-5 0  9998","MEAN_ANOMALY":"272.1193","OBJECT_TYPE":"PAYLOAD","NORAD_CAT_ID":"48559","APOAPSIS":"548.485","EPHEMERIS_TYPE":"0","SITE":"AFETR","DECAY_DATE":null,"TLE_LINE2":"2 48559  53.0520  96.9005 0001846  88.0007 272.1193 15.06402239 25070","COUNTRY_CODE":"US","OBJECT_NAME":"STARLINK-2167","SEMIMAJOR_AXIS":"6925.342","FILE":"3183720","ELEMENT_SET_NO":"999","RCS_SIZE":"LARGE","MEAN_MOTION_DOT":"-0.00000356","MEAN_ELEMENT_THEORY":"SGP4","ARG_OF_PERICENTER":"88.0007"},{"ELEMENT_SET_NO":"999","RCS_SIZE":"LARGE","MEAN_MOTION_DOT":"0.00001487","MEAN_ELEMENT_THEORY":"SGP4","ARG_OF_PERICENTER":"95.2021","TLE_LINE2":"2 48560  53.0506  96.8957 0001625  95.2021 264.9153 15.06397069 25071","COUNTRY_CODE":"US","OBJECT_NAME":"STARLINK-2173","SEMIMAJOR_AXIS":"6925.358","FILE":"3183720","APOAPSIS":"548.348","EPHEMERIS_TYPE":"0","SITE":"AFETR","DECAY_DATE":null,"REF_FRAME":"TEME","PERIAPSIS":"546.097","CLASSIFICATION_TYPE":"U","LAUNCH_DATE":"2021-05-15","MEAN_MOTION_DDOT":"0.0000000000000","TIME_SYSTEM":"UTC","INCLINATION":"53.0506","TLE_LINE1":"1 48560U 21041H   21298.56745552  .00001487  00000-0  11871-3 0  9993","OBJECT_TYPE":"PAYLOAD","MEAN_ANOMALY":"264.9153","NORAD_CAT_ID":"48560","REV_AT_EPOCH":"2507","GP_ID":"188150863","BSTAR":"0.00011871000000","MEAN_MOTION":"15.06397069","PERIOD":"95.592","ECCENTRICITY":"0.00016250","EPOCH":"2021-10-25T13:37:08.156928","OBJECT_ID":"2021-041H","RA_OF_ASC_NODE":"96.8957","CENTER_NAME":"EARTH"},{"GP_ID":"188120212","BSTAR":"-0.03950200000000","REV_AT_EPOCH":"2544","ECCENTRICITY":"0.00015630","MEAN_MOTION":"15.30248098","PERIOD":"94.102","CLASSIFICATION_TYPE":"U","LAUNCH_DATE":"2021-05-15","MEAN_MOTION_DDOT":"0.0000000000000","TIME_SYSTEM":"UTC","REF_FRAME":"TEME","PERIAPSIS":"474.002","NORAD_CAT_ID":"48561","OBJECT_TYPE":"PAYLOAD","MEAN_ANOMALY":"24.0477","INCLINATION":"53.0600","TLE_LINE1":"1 48561U 21041J   21298.58335648 -.01073984  00000-0 -39502-1 0  9990","RA_OF_ASC_NODE":"67.6446","OBJECT_ID":"2021-041J","CENTER_NAME":"EARTH","EPOCH":"2021-10-25T14:00:01.999872","ELEMENT_SET_NO":"999","ARG_OF_PERICENTER":"43.4066","RCS_SIZE":"LARGE","MEAN_ELEMENT_THEORY":"SGP4","MEAN_MOTION_DOT":"-0.01073984","APOAPSIS":"476.145","EPHEMERIS_TYPE":"0","DECAY_DATE":null,"SITE":"AFETR","OBJECT_NAME":"STARLINK-2186","SEMIMAJOR_AXIS":"6853.208","TLE_LINE2":"2 48561  53.0600  67.6446 0001563  43.4066  24.0477 15.30248098 25440","COUNTRY_CODE":"US","FILE":"3183338"},{"ARG_OF_PERICENTER":"69.6583","MEAN_MOTION_DOT":"0.00000823","RCS_SIZE":"LARGE","MEAN_ELEMENT_THEORY":"SGP4","ELEMENT_SET_NO":"999","FILE":"3183453","SEMIMAJOR_AXIS":"6925.371","OBJECT_NAME":"STARLINK-2187","COUNTRY_CODE":"US","TLE_LINE2":"2 48562  53.0593  98.6440 0001513  69.6583 290.4568 15.06392605 24579","DECAY_DATE":null,"SITE":"AFETR","EPHEMERIS_TYPE":"0","APOAPSIS":"548.284","MEAN_ANOMALY":"290.4568","OBJECT_TYPE":"PAYLOAD","NORAD_CAT_ID":"48562","TLE_LINE1":"1 48562U 21041K   21298.17676703  .00000823  00000-0  74178-4 0  9996","INCLINATION":"53.0593","LAUNCH_DATE":"2021-05-15","MEAN_MOTION_DDOT":"0.0000000000000","TIME_SYSTEM":"UTC","CLASSIFICATION_TYPE":"U","PERIAPSIS":"546.188","REF_FRAME":"TEME","ECCENTRICITY":"0.00015130","PERIOD":"95.593","MEAN_MOTION":"15.06392605","BSTAR":"0.00007417800000","GP_ID":"188145410","REV_AT_EPOCH":"2457","EPOCH":"2021-10-25T04:14:32.671392","CENTER_NAME":"EARTH","OBJECT_ID":"2021-041K","RA_OF_ASC_NODE":"98.6440"},{"APOAPSIS":"548.630","EPHEMERIS_TYPE":"0","DECAY_DATE":null,"SITE":"AFETR","SEMIMAJOR_AXIS":"6925.347","OBJECT_NAME":"STARLINK-2188","COUNTRY_CODE":"US","TLE_LINE2":"2 48563  53.0565  99.7589 0002048  81.4314 278.6907 15.06400452 24534","FILE":"3183453","ELEMENT_SET_NO":"999","ARG_OF_PERICENTER":"81.4314","RCS_SIZE":"LARGE","MEAN_MOTION_DOT":"0.00000732","MEAN_ELEMENT_THEORY":"SGP4","RA_OF_ASC_NODE":"99.7589","OBJECT_ID":"2021-041L","CENTER_NAME":"EARTH","EPOCH":"2021-10-24T22:18:54.038304","BSTAR":"0.00006801500000","GP_ID":"188145299","REV_AT_EPOCH":"2453","ECCENTRICITY":"0.00020480","PERIOD":"95.592","MEAN_MOTION":"15.06400452","TIME_SYSTEM":"UTC","LAUNCH_DATE":"2021-05-15","MEAN_MOTION_DDOT":"0.0000000000000","CLASSIFICATION_TYPE":"U","PERIAPSIS":"545.794","REF_FRAME":"TEME","MEAN_ANOMALY":"278.6907","OBJECT_TYPE":"PAYLOAD","NORAD_CAT_ID":"48563","TLE_LINE1":"1 48563U 21041L   21297.92979211  .00000732  00000-0  68015-4 0  9991","INCLINATION":"53.0565"},{"MEAN_MOTION_DDOT":"0.0000000000000","LAUNCH_DATE":"2021-05-15","TIME_SYSTEM":"UTC","CLASSIFICATION_TYPE":"U","PERIAPSIS":"546.269","REF_FRAME":"TEME","OBJECT_TYPE":"PAYLOAD","MEAN_ANOMALY":"271.5247","NORAD_CAT_ID":"48564","TLE_LINE1":"1 48564U 21041M   21298.18781954  .00000855  00000-0  76294-4 0  9990","INCLINATION":"53.0559","BSTAR":"0.00007629400000","GP_ID":"188145967","REV_AT_EPOCH":"2457","ECCENTRICITY":"0.00014060","PERIOD":"95.593","MEAN_MOTION":"15.06390384","EPOCH":"2021-10-25T04:30:27.608256","OBJECT_ID":"2021-041M","RA_OF_ASC_NODE":"98.5937","CENTER_NAME":"EARTH","ELEMENT_SET_NO":"999","ARG_OF_PERICENTER":"88.5903","MEAN_MOTION_DOT":"0.00000855","RCS_SIZE":"LARGE","MEAN_ELEMENT_THEORY":"SGP4","SEMIMAJOR_AXIS":"6925.378","OBJECT_NAME":"STARLINK-2190","COUNTRY_CODE":"US","TLE_LINE2":"2 48564  53.0559  98.5937 0001406  88.5903 271.5247 15.06390384 24576","FILE":"3183453","EPHEMERIS_TYPE":"0","APOAPSIS":"548.217","DECAY_DATE":null,"SITE":"AFETR"},{"APOAPSIS":"548.315","EPHEMERIS_TYPE":"0","SITE":"AFETR","DECAY_DATE":null,"COUNTRY_CODE":"US","TLE_LINE2":"2 48565  53.0574  98.6128 0001563  91.0682 269.0486 15.06393957 24570","SEMIMAJOR_AXIS":"6925.367","OBJECT_NAME":"STARLINK-2191","FILE":"3183453","ELEMENT_SET_NO":"999","RCS_SIZE":"LARGE","MEAN_ELEMENT_THEORY":"SGP4","MEAN_MOTION_DOT":"-0.00000822","ARG_OF_PERICENTER":"91.0682","OBJECT_ID":"2021-041N","RA_OF_ASC_NODE":"98.6128","CENTER_NAME":"EARTH","EPOCH":"2021-10-25T04:25:07.840128","REV_AT_EPOCH":"2457","BSTAR":"-0.00003632200000","GP_ID":"188145522","PERIOD":"95.593","MEAN_MOTION":"15.06393957","ECCENTRICITY":"0.00015630","PERIAPSIS":"546.150","REF_FRAME":"TEME","LAUNCH_DATE":"2021-05-15","MEAN_MOTION_DDOT":"0.0000000000000","TIME_SYSTEM":"UTC","CLASSIFICATION_TYPE":"U","TLE_LINE1":"1 48565U 21041N   21298.18411852 -.00000822  00000-0 -36322-4 0  9992","INCLINATION":"53.0574","OBJECT_TYPE":"PAYLOAD","MEAN_ANOMALY":"269.0486","NORAD_CAT_ID":"48565"},{"ARG_OF_PERICENTER":"87.9211","MEAN_MOTION_DOT":"0.00000658","RCS_SIZE":"LARGE","MEAN_ELEMENT_THEORY":"SGP4","ELEMENT_SET_NO":"999","DECAY_DATE":null,"SITE":"AFETR","APOAPSIS":"548.361","EPHEMERIS_TYPE":"0","FILE":"3183453","OBJECT_NAME":"STARLINK-2214","SEMIMAJOR_AXIS":"6925.347","TLE_LINE2":"2 48566  53.0551 108.4996 0001659  87.9211 272.1968 15.06400434 24431","COUNTRY_CODE":"US","ECCENTRICITY":"0.00016590","PERIOD":"95.592","MEAN_MOTION":"15.06400434","GP_ID":"188145745","BSTAR":"0.00006309500000","REV_AT_EPOCH":"2443","OBJECT_TYPE":"PAYLOAD","NORAD_CAT_ID":"48566","MEAN_ANOMALY":"272.1968","INCLINATION":"53.0551","TLE_LINE1":"1 48566U 21041P   21298.20805554  .00000658  00000-0  63095-4 0  9994","CLASSIFICATION_TYPE":"U","TIME_SYSTEM":"UTC","LAUNCH_DATE":"2021-05-15","MEAN_MOTION_DDOT":"0.0000000000000","REF_FRAME":"TEME","PERIAPSIS":"546.063","CENTER_NAME":"EARTH","RA_OF_ASC_NODE":"108.4996","OBJECT_ID":"2021-041P","EPOCH":"2021-10-25T04:59:35.998656"},{"ELEMENT_SET_NO":"999","RCS_SIZE":"LARGE","MEAN_MOTION_DOT":"0.00000568","MEAN_ELEMENT_THEORY":"SGP4","ARG_OF_PERICENTER":"84.0250","COUNTRY_CODE":"US","TLE_LINE2":"2 48567  53.0542 108.1417 0001621  84.0250 276.0923 15.06386300 24841","SEMIMAJOR_AXIS":"6925.391","OBJECT_NAME":"STARLINK-2215","FILE":"3183340","EPHEMERIS_TYPE":"0","APOAPSIS":"548.378","SITE":"AFETR","DECAY_DATE":null,"PERIAPSIS":"546.133","REF_FRAME":"TEME","LAUNCH_DATE":"2021-05-15","MEAN_MOTION_DDOT":"0.0000000000000","TIME_SYSTEM":"UTC","CLASSIFICATION_TYPE":"U","TLE_LINE1":"1 48567U 21041Q   21298.28642707  .00000568  00000-0  57068-4 0  9995","INCLINATION":"53.0542","MEAN_ANOMALY":"276.0923","OBJECT_TYPE":"PAYLOAD","NORAD_CAT_ID":"48567","REV_AT_EPOCH":"2484","BSTAR":"0.00005706800000","GP_ID":"188120150","MEAN_MOTION":"15.06386300","PERIOD":"95.593","ECCENTRICITY":"0.00016210","EPOCH":"2021-10-25T06:52:27.298848","OBJECT_ID":"2021-041Q","RA_OF_ASC_NODE":"108.1417","CENTER_NAME":"EARTH"}];
